{"type": "FeatureCollection", "features": [ {"type": "Feature", "properties": {"norad_id": 34141, "name": "COSMOS 2251 DEB", "group": "cosmos-2251-debris", "lat": -8.849082565151628, "lon": -168.762835772071, "alt_km": 735.9634435022235, "timestamp": "2025-12-23T11:34:48.554423+00:00", "meta": {"OBJECT_NAME": "COSMOS 2251 DEB", "OBJECT_ID": "1993-036LN", "EPOCH": "2025-12-23T02:41:34.937952", "MEAN_MOTION": 14.49338789, "ECCENTRICITY": 0.0046496, "INCLINATION": 74.011, "RA_OF_ASC_NODE": 9.3741, "ARG_OF_PERICENTER": 91.849, "MEAN_ANOMALY": 325.4318, "EPHEMERIS_TYPE": 0, "CLASSIFICATION_TYPE": "U", "NORAD_CAT_ID": 34141, "ELEMENT_SET_NO": 999, "REV_AT_EPOCH": 87844, "BSTAR": 0.0014544, "MEAN_MOTION_DOT": 5.609e-05, "MEAN_MOTION_DDOT": 0}, "tle": {"line1": "1 34141U 93036LN  25357.11220993  .00005609  00000+0  14544-2 0  9992", "line2": "2 34141  74.0110   9.3741 0046496  91.8490 325.4318 14.49338789878445"}}, "geometry": {"type": "Point", "coordinates": [-168.762835772071, -8.849082565151628]}}, {"type": "Feature", "properties": {"norad_id": 34270, "name": "COSMOS 2251 DEB", "group": "cosmos-2251-debris", "lat": 37.74824460931562, "lon": -61.24934592305416, "alt_km": 645.6988659082508, "timestamp": "2025-12-23T11:34:48.554432+00:00", "meta": {"OBJECT_NAME": "COSMOS 2251 DEB", "OBJECT_ID": "1993-036LQ", "EPOCH": "2025-12-22T22:17:31.909920", "MEAN_MOTION": 14.65242865, "ECCENTRICITY": 0.0047973, "INCLINATION": 74.0116, "RA_OF_ASC_NODE": 286.9915, "ARG_OF_PERICENTER": 76.7233, "MEAN_ANOMALY": 283.9279, "EPHEMERIS_TYPE": 0, "CLASSIFICATION_TYPE": "U", "NORAD_CAT_ID": 34270, "ELEMENT_SET_NO": 999, "REV_AT_EPOCH": 89245, "BSTAR": 0.00070883, "MEAN_MOTION_DOT": 3.855e-05, "MEAN_MOTION_DDOT": 0}, "tle": {"line1": "1 34270U 93036LQ  25356.92884155  .00003855  00000+0  70883-3 0  9999", "line2": "2 34270  74.0116 286.9915 0047973  76.7233 283.9279 14.65242865892456"}}, "geometry": {"type": "Point", "coordinates": [-61.24934592305416, 37.74824460931562]}}, {"type": "Feature", "properties": {"norad_id": 34271, "name": "COSMOS 2251 DEB", "group": "cosmos-2251-debris", "lat": -23.704799885189363, "lon": 5.6802992854802055, "alt_km": 651.5818580767227, "timestamp": "2025-12-23T11:34:48.554441+00:00", "meta": {"OBJECT_NAME": "COSMOS 2251 DEB", "OBJECT_ID": "1993-036LR", "EPOCH": "2025-12-22T11:55:42.494304", "MEAN_MOTION": 14.70960843, "ECCENTRICITY": 0.00182961, "INCLINATION": 74.0192, "RA_OF_ASC_NODE": 180.3666, "ARG_OF_PERICENTER": 233.6422, "MEAN_ANOMALY": 154.5734, "EPHEMERIS_TYPE": 0, "CLASSIFICATION_TYPE": "U", "NORAD_CAT_ID": 34271, "ELEMENT_SET_NO": 999, "REV_AT_EPOCH": 88378, "BSTAR": 0.0022763733, "MEAN_MOTION_DOT": 0.00013988, "MEAN_MOTION_DDOT": 0}, "tle": {"line1": "1 34271U 93036LR  25356.49701961  .00013988  00000+0  22764-2 0  9997", "line2": "2 34271  74.0192 180.3666 0018296 233.6422 154.5734 14.70960843883785"}}, "geometry": {"type": "Point", "coordinates": [5.6802992854802055, -23.704799885189363]}}, {"type": "Feature", "properties": {"norad_id": 34273, "name": "COSMOS 2251 DEB", "group": "cosmos-2251-debris", "lat": -32.0294170203289, "lon": -102.7972413522033, "alt_km": 685.7380773464893, "timestamp": "2025-12-23T11:34:48.554450+00:00", "meta": {"OBJECT_NAME": "COSMOS 2251 DEB", "OBJECT_ID": "1993-036LT", "EPOCH": "2025-12-23T04:08:17.943360", "MEAN_MOTION": 14.61312586, "ECCENTRICITY": 0.001351, "INCLINATION": 74.0359, "RA_OF_ASC_NODE": 67.4794, "ARG_OF_PERICENTER": 193.2229, "MEAN_ANOMALY": 189.5426, "EPHEMERIS_TYPE": 0, "CLASSIFICATION_TYPE": "U", "NORAD_CAT_ID": 34273, "ELEMENT_SET_NO": 999, "REV_AT_EPOCH": 88774, "BSTAR": 0.00092744, "MEAN_MOTION_DOT": 4.559e-05, "MEAN_MOTION_DDOT": 0}, "tle": {"line1": "1 34273U 93036LT  25357.17242990  .00004559  00000+0  92744-3 0  9997", "line2": "2 34273  74.0359  67.4794 0013510 193.2229 189.5426 14.61312586887740"}}, "geometry": {"type": "Point", "coordinates": [-102.7972413522033, -32.0294170203289]}}, {"type": "Feature", "properties": {"norad_id": 34274, "name": "COSMOS 2251 DEB", "group": "cosmos-2251-debris", "lat": 67.02488395625114, "lon": 90.4502064136896, "alt_km": 678.92065155404, "timestamp": "2025-12-23T11:34:48.554459+00:00", "meta": {"OBJECT_NAME": "COSMOS 2251 DEB", "OBJECT_ID": "1993-036LU", "EPOCH": "2025-12-22T14:30:07.644096", "MEAN_MOTION": 14.64886943, "ECCENTRICITY": 0.00214539, "INCLINATION": 74.0037, "RA_OF_ASC_NODE": 49.5609, "ARG_OF_PERICENTER": 199.0285, "MEAN_ANOMALY": 284.8567, "EPHEMERIS_TYPE": 0, "CLASSIFICATION_TYPE": "U", "NORAD_CAT_ID": 34274, "ELEMENT_SET_NO": 999, "REV_AT_EPOCH": 88820, "BSTAR": 0.0010110757, "MEAN_MOTION_DOT": 5.396e-05, "MEAN_MOTION_DDOT": 0}, "tle": {"line1": "1 34274U 93036LU  25356.60425514  .00005396  00000+0  10111-2 0  9997", "line2": "2 34274  74.0037  49.5609 0021453 199.0285 284.8567 14.64886943888204"}}, "geometry": {"type": "Point", "coordinates": [90.4502064136896, 67.02488395625114]}}, {"type": "Feature", "properties": {"norad_id": 34276, "name": "COSMOS 2251 DEB", "group": "cosmos-2251-debris", "lat": 70.09351056181352, "lon": 117.1874905454737, "alt_km": 705.4006046052737, "timestamp": "2025-12-23T11:34:48.554468+00:00", "meta": {"OBJECT_NAME": "COSMOS 2251 DEB", "OBJECT_ID": "1993-036LW", "EPOCH": "2025-12-21T23:47:17.316960", "MEAN_MOTION": 14.57284799, "ECCENTRICITY": 0.00222541, "INCLINATION": 74.0239, "RA_OF_ASC_NODE": 67.7315, "ARG_OF_PERICENTER": 213.6612, "MEAN_ANOMALY": 323.8377, "EPHEMERIS_TYPE": 0, "CLASSIFICATION_TYPE": "U", "NORAD_CAT_ID": 34276, "ELEMENT_SET_NO": 999, "REV_AT_EPOCH": 88727, "BSTAR": 0.00065538143, "MEAN_MOTION_DOT": 2.946e-05, "MEAN_MOTION_DDOT": 0}, "tle": {"line1": "1 34276U 93036LW  25355.99117265  .00002946  00000+0  65538-3 0  9993", "line2": "2 34276  74.0239  67.7315 0022254 213.6612 323.8377 14.57284799887275"}}, "geometry": {"type": "Point", "coordinates": [117.1874905454737, 70.09351056181352]}}, {"type": "Feature", "properties": {"norad_id": 34297, "name": "COSMOS 2251 DEB", "group": "cosmos-2251-debris", "lat": 12.760568790568527, "lon": -91.77959758729105, "alt_km": 761.0673073043054, "timestamp": "2025-12-23T11:34:48.554477+00:00", "meta": {"OBJECT_NAME": "COSMOS 2251 DEB", "OBJECT_ID": "1993-036MT", "EPOCH": "2025-12-23T02:00:36.393120", "MEAN_MOTION": 14.36637797, "ECCENTRICITY": 0.0017681, "INCLINATION": 74.0487, "RA_OF_ASC_NODE": 265.2385, "ARG_OF_PERICENTER": 331.9997, "MEAN_ANOMALY": 139.7826, "EPHEMERIS_TYPE": 0, "CLASSIFICATION_TYPE": "U", "NORAD_CAT_ID": 34297, "ELEMENT_SET_NO": 999, "REV_AT_EPOCH": 88213, "BSTAR": 0.00013287, "MEAN_MOTION_DOT": 3.65e-06, "MEAN_MOTION_DDOT": 0}, "tle": {"line1": "1 34297U 93036MT  25357.08375455  .00000365  00000+0  13287-3 0  9992", "line2": "2 34297  74.0487 265.2385 0017681 331.9997 139.7826 14.36637797882133"}}, "geometry": {"type": "Point", "coordinates": [-91.77959758729105, 12.760568790568527]}}, {"type": "Feature", "properties": {"norad_id": 34299, "name": "COSMOS 2251 DEB", "group": "cosmos-2251-debris", "lat": 20.771885130499093, "lon": -44.25660481313732, "alt_km": 155.98692345649852, "timestamp": "2025-12-23T11:34:48.554488+00:00", "meta": {"OBJECT_NAME": "COSMOS 2251 DEB", "OBJECT_ID": "1993-036MV", "EPOCH": "2025-12-22T22:12:31.544640", "MEAN_MOTION": 16.15901291, "ECCENTRICITY": 0.000982, "INCLINATION": 73.9583, "RA_OF_ASC_NODE": 310.8431, "ARG_OF_PERICENTER": 131.3448, "MEAN_ANOMALY": 228.8646, "EPHEMERIS_TYPE": 0, "CLASSIFICATION_TYPE": "U", "NORAD_CAT_ID": 34299, "ELEMENT_SET_NO": 999, "REV_AT_EPOCH": 89172, "BSTAR": 0.0085546, "MEAN_MOTION_DOT": 0.05990517, "MEAN_MOTION_DDOT": 0.25518}, "tle": {"line1": "1 34299U 93036MV  25356.92536510  .05990517  25518+0  85546-2 0  9996", "line2": "2 34299  73.9583 310.8431 0009820 131.3448 228.8646 16.15901291891725"}}, "geometry": {"type": "Point", "coordinates": [-44.25660481313732, 20.771885130499093]}}, {"type": "Feature", "properties": {"norad_id": 34301, "name": "COSMOS 2251 DEB", "group": "cosmos-2251-debris", "lat": 19.513980445990793, "lon": 151.17752308839215, "alt_km": 620.3293619287324, "timestamp": "2025-12-23T11:34:48.554497+00:00", "meta": {"OBJECT_NAME": "COSMOS 2251 DEB", "OBJECT_ID": "1993-036MX", "EPOCH": "2025-12-22T19:53:22.425792", "MEAN_MOTION": 14.85014101, "ECCENTRICITY": 0.00102276, "INCLINATION": 74.0055, "RA_OF_ASC_NODE": 146.643, "ARG_OF_PERICENTER": 209.688, "MEAN_ANOMALY": 277.0489, "EPHEMERIS_TYPE": 0, "CLASSIFICATION_TYPE": "U", "NORAD_CAT_ID": 34301, "ELEMENT_SET_NO": 999, "REV_AT_EPOCH": 88550, "BSTAR": 0.0032611142, "MEAN_MOTION_DOT": 0.00027935, "MEAN_MOTION_DDOT": 0}, "tle": {"line1": "1 34301U 93036MX  25356.82873178  .00027935  00000+0  32611-2 0  9997", "line2": "2 34301  74.0055 146.6430 0010227 209.6880 277.0489 14.85014101885501"}}, "geometry": {"type": "Point", "coordinates": [151.17752308839215, 19.513980445990793]}}, {"type": "Feature", "properties": {"norad_id": 34302, "name": "COSMOS 2251 DEB", "group": "cosmos-2251-debris", "lat": 26.23658163140331, "lon": -84.11163677258574, "alt_km": 813.6290444848637, "timestamp": "2025-12-23T11:34:48.554507+00:00", "meta": {"OBJECT_NAME": "COSMOS 2251 DEB", "OBJECT_ID": "1993-036MY", "EPOCH": "2025-12-23T02:49:12.158112", "MEAN_MOTION": 14.39368344, "ECCENTRICITY": 0.0079371, "INCLINATION": 74.1781, "RA_OF_ASC_NODE": 104.5899, "ARG_OF_PERICENTER": 316.9355, "MEAN_ANOMALY": 105.2859, "EPHEMERIS_TYPE": 0, "CLASSIFICATION_TYPE": "U", "NORAD_CAT_ID": 34302, "ELEMENT_SET_NO": 999, "REV_AT_EPOCH": 87870, "BSTAR": 0.00056774, "MEAN_MOTION_DOT": 1.805e-05, "MEAN_MOTION_DDOT": 0}, "tle": {"line1": "1 34302U 93036MY  25357.11750183  .00001805  00000+0  56774-3 0  9996", "line2": "2 34302  74.1781 104.5899 0079371 316.9355 105.2859 14.39368344878702"}}, "geometry": {"type": "Point", "coordinates": [-84.11163677258574, 26.23658163140331]}}]}